[{"OBJECT_NAME":"ION SCV-016","OBJECT_ID":"2025-009V","EPOCH":"2026-03-09T15:48:19.049184","MEAN_MOTION":14.46743407,"ECCENTRICITY":0.06066159,"INCLINATION":97.4455,"RA_OF_ASC_NODE":117.8911,"ARG_OF_PERICENTER":59.3392,"MEAN_ANOMALY":306.6163,"EPHEMERIS_TYPE":0,"CLASSIFICATION_TYPE":"U","NORAD_CAT_ID":62628,"ELEMENT_SET_NO":999,"REV_AT_EPOCH":6113,"BSTAR":0.0005439681,"MEAN_MOTION_DOT":0.00025234,"MEAN_MOTION_DDOT":0},{"OBJECT_NAME":"DELTA 1 DEB","OBJECT_ID":"1975-004F","EPOCH":"2026-03-09T23:40:41.685312","MEAN_MOTION":14.10310577,"ECCENTRICITY":0.01760462,"INCLINATION":97.6255,"RA_OF_ASC_NODE":76.8198,"ARG_OF_PERICENTER":73.4502,"MEAN_ANOMALY":288.5928,"EPHEMERIS_TYPE":0,"CLASSIFICATION_TYPE":"U","NORAD_CAT_ID":8678,"ELEMENT_SET_NO":999,"REV_AT_EPOCH":62460,"BSTAR":0.00011339647,"MEAN_MOTION_DOT":2.0e-6,"MEAN_MOTION_DDOT":0}]
